start=new Date('2022-11-09T00:00:00.000Z').valueOf();
sats=[{"CENTER_NAME":"EARTH","REF_FRAME":"TEME","MEAN_ANOMALY":"275.4487","DECAY_DATE":null,"COUNTRY_CODE":"US","ECCENTRICITY":"0.00014690","MEAN_MOTION_DDOT":"0.0000000000000","TIME_SYSTEM":"UTC","SEMIMAJOR_AXIS":"6925.299","MEAN_ELEMENT_THEORY":"SGP4","PERIOD":"95.591","EPHEMERIS_TYPE":"0","BSTAR":"0.00042700000000","NORAD_CAT_ID":"47622","PERIAPSIS":"546.146","LAUNCH_DATE":"2021-02-16","RA_OF_ASC_NODE":"133.9527","MEAN_MOTION_DOT":"0.00006087","MEAN_MOTION":"15.06416279","GP_ID":"217200437","TLE_LINE1":"1 47622U 21012C   22312.91048224  .00006087  00000-0  42700-3 0  9994","INCLINATION":"53.0524","REV_AT_EPOCH":"9658","FILE":"3649076","TLE_LINE2":"2 47622  53.0524 133.9527 0001469  84.6669 275.4487 15.06416279 96587","ELEMENT_SET_NO":"999","OBJECT_TYPE":"PAYLOAD","APOAPSIS":"548.181","OBJECT_ID":"2021-012C","ARG_OF_PERICENTER":"84.6669","SITE":"AFETR","CLASSIFICATION_TYPE":"U","EPOCH":"2022-11-08T21:51:05.665536","OBJECT_NAME":"STARLINK-1645","RCS_SIZE":"LARGE"},{"EPHEMERIS_TYPE":"0","BSTAR":"0.00013066000000","PERIOD":"95.592","MEAN_ELEMENT_THEORY":"SGP4","TIME_SYSTEM":"UTC","SEMIMAJOR_AXIS":"6925.352","MEAN_MOTION_DDOT":"0.0000000000000","MEAN_MOTION":"15.06398930","MEAN_MOTION_DOT":"0.00001665","RA_OF_ASC_NODE":"69.8031","LAUNCH_DATE":"2021-02-16","PERIAPSIS":"546.200","NORAD_CAT_ID":"47623","REF_FRAME":"TEME","CENTER_NAME":"EARTH","ECCENTRICITY":"0.00014690","DECAY_DATE":null,"COUNTRY_CODE":"US","MEAN_ANOMALY":"257.4539","ARG_OF_PERICENTER":"102.6614","OBJECT_ID":"2021-012D","APOAPSIS":"548.234","ELEMENT_SET_NO":"999","OBJECT_TYPE":"PAYLOAD","RCS_SIZE":"LARGE","OBJECT_NAME":"STARLINK-1655","CLASSIFICATION_TYPE":"U","EPOCH":"2022-11-08T17:22:23.930112","SITE":"AFETR","FILE":"3649076","TLE_LINE1":"1 47623U 21012D   22312.72388808  .00001665  00000-0  13066-3 0  9999","REV_AT_EPOCH":"9747","INCLINATION":"53.0561","GP_ID":"217200687","TLE_LINE2":"2 47623  53.0561  69.8031 0001469 102.6614 257.4539 15.06398930 97477"},{"OBJECT_TYPE":"PAYLOAD","ELEMENT_SET_NO":"999","OBJECT_ID":"2021-012E","APOAPSIS":"548.098","ARG_OF_PERICENTER":"105.7681","EPOCH":"2022-11-08T17:13:47.544960","OBJECT_NAME":"STARLINK-1669","CLASSIFICATION_TYPE":"U","SITE":"AFETR","RCS_SIZE":"LARGE","GP_ID":"217200945","FILE":"3649076","REV_AT_EPOCH":"9685","TLE_LINE1":"1 47624U 21012E   22312.71791140  .00003327  00000-0  24211-3 0  9997","INCLINATION":"53.0548","TLE_LINE2":"2 47624  53.0548 114.8291 0001311 105.7681 254.3452 15.06407818 96853","MEAN_MOTION_DDOT":"0.0000000000000","TIME_SYSTEM":"UTC","SEMIMAJOR_AXIS":"6925.325","MEAN_ELEMENT_THEORY":"SGP4","BSTAR":"0.00024211000000","EPHEMERIS_TYPE":"0","PERIOD":"95.592","PERIAPSIS":"546.282","NORAD_CAT_ID":"47624","RA_OF_ASC_NODE":"114.8291","LAUNCH_DATE":"2021-02-16","MEAN_MOTION":"15.06407818","MEAN_MOTION_DOT":"0.00003327","CENTER_NAME":"EARTH","REF_FRAME":"TEME","ECCENTRICITY":"0.00013110","DECAY_DATE":null,"COUNTRY_CODE":"US","MEAN_ANOMALY":"254.3452"},{"RCS_SIZE":"LARGE","SITE":"AFETR","EPOCH":"2022-11-08T18:50:37.336704","OBJECT_NAME":"STARLINK-1704","CLASSIFICATION_TYPE":"U","APOAPSIS":"548.220","OBJECT_ID":"2021-012F","ARG_OF_PERICENTER":"81.8446","ELEMENT_SET_NO":"999","OBJECT_TYPE":"PAYLOAD","TLE_LINE2":"2 47625  53.0521 134.4990 0001456  81.8446 278.2708 15.06400476 96562","GP_ID":"217201672","REV_AT_EPOCH":"9656","TLE_LINE1":"1 47625U 21012F   22312.78515436  .00002487  00000-0  18580-3 0  9995","INCLINATION":"53.0521","FILE":"3649076","MEAN_MOTION_DOT":"0.00002487","MEAN_MOTION":"15.06400476","NORAD_CAT_ID":"47625","PERIAPSIS":"546.204","LAUNCH_DATE":"2021-02-16","RA_OF_ASC_NODE":"134.4990","MEAN_ELEMENT_THEORY":"SGP4","PERIOD":"95.592","BSTAR":"0.00018580000000","EPHEMERIS_TYPE":"0","MEAN_MOTION_DDOT":"0.0000000000000","SEMIMAJOR_AXIS":"6925.347","TIME_SYSTEM":"UTC","MEAN_ANOMALY":"278.2708","COUNTRY_CODE":"US","DECAY_DATE":null,"ECCENTRICITY":"0.00014560","CENTER_NAME":"EARTH","REF_FRAME":"TEME"},{"MEAN_MOTION_DDOT":"0.0000000000000","TIME_SYSTEM":"UTC","SEMIMAJOR_AXIS":"6925.342","MEAN_ELEMENT_THEORY":"SGP4","BSTAR":"0.00018033000000","EPHEMERIS_TYPE":"0","PERIOD":"95.592","PERIAPSIS":"546.249","NORAD_CAT_ID":"47626","RA_OF_ASC_NODE":"133.9891","LAUNCH_DATE":"2021-02-16","MEAN_MOTION":"15.06402173","MEAN_MOTION_DOT":"0.00002406","CENTER_NAME":"EARTH","REF_FRAME":"TEME","DECAY_DATE":null,"COUNTRY_CODE":"US","ECCENTRICITY":"0.00013830","MEAN_ANOMALY":"274.2720","OBJECT_TYPE":"PAYLOAD","ELEMENT_SET_NO":"999","OBJECT_ID":"2021-012G","APOAPSIS":"548.165","ARG_OF_PERICENTER":"85.8427","OBJECT_NAME":"STARLINK-1761","EPOCH":"2022-11-08T21:41:51.113184","CLASSIFICATION_TYPE":"U","SITE":"AFETR","RCS_SIZE":"LARGE","GP_ID":"217199944","FILE":"3649076","TLE_LINE1":"1 47626U 21012G   22312.90406381  .00002406  00000-0  18033-3 0  9992","INCLINATION":"53.0539","REV_AT_EPOCH":"9658","TLE_LINE2":"2 47626  53.0539 133.9891 0001383  85.8427 274.2720 15.06402173 96586"},{"GP_ID":"217169903","FILE":"3648805","TLE_LINE1":"1 47627U 21012H   22312.31750817  .00002329  00000-0  17518-3 0  9995","INCLINATION":"53.0561","REV_AT_EPOCH":"9780","TLE_LINE2":"2 47627  53.0561  41.6248 0001537  79.6650 280.4512 15.06411280 97806","OBJECT_ID":"2021-012H","APOAPSIS":"548.243","ARG_OF_PERICENTER":"79.6650","ELEMENT_SET_NO":"999","OBJECT_TYPE":"PAYLOAD","RCS_SIZE":"LARGE","OBJECT_NAME":"STARLINK-1972","EPOCH":"2022-11-08T07:37:12.705888","CLASSIFICATION_TYPE":"U","SITE":"AFETR","CENTER_NAME":"EARTH","REF_FRAME":"TEME","COUNTRY_CODE":"US","DECAY_DATE":null,"ECCENTRICITY":"0.00015370","MEAN_ANOMALY":"280.4512","MEAN_ELEMENT_THEORY":"SGP4","EPHEMERIS_TYPE":"0","BSTAR":"0.00017518000000","PERIOD":"95.591","MEAN_MOTION_DDOT":"0.0000000000000","TIME_SYSTEM":"UTC","SEMIMAJOR_AXIS":"6925.314","MEAN_MOTION":"15.06411280","MEAN_MOTION_DOT":"0.00002329","PERIAPSIS":"546.115","NORAD_CAT_ID":"47627","RA_OF_ASC_NODE":"41.6248","LAUNCH_DATE":"2021-02-16"},{"FILE":"3649076","INCLINATION":"53.0546","TLE_LINE1":"1 47628U 21012J   22312.80728088  .00003757  00000-0  27091-3 0  9998","REV_AT_EPOCH":"9657","GP_ID":"217201439","TLE_LINE2":"2 47628  53.0546 134.4112 0001537  95.3314 264.7850 15.06405500 96574","ELEMENT_SET_NO":"999","OBJECT_TYPE":"PAYLOAD","ARG_OF_PERICENTER":"95.3314","OBJECT_ID":"2021-012J","APOAPSIS":"548.261","CLASSIFICATION_TYPE":"U","EPOCH":"2022-11-08T19:22:29.068032","OBJECT_NAME":"STARLINK-1973","SITE":"AFETR","RCS_SIZE":"LARGE","REF_FRAME":"TEME","CENTER_NAME":"EARTH","DECAY_DATE":null,"COUNTRY_CODE":"US","ECCENTRICITY":"0.00015370","MEAN_ANOMALY":"264.7850","TIME_SYSTEM":"UTC","SEMIMAJOR_AXIS":"6925.332","MEAN_MOTION_DDOT":"0.0000000000000","EPHEMERIS_TYPE":"0","BSTAR":"0.00027091000000","PERIOD":"95.592","MEAN_ELEMENT_THEORY":"SGP4","RA_OF_ASC_NODE":"134.4112","LAUNCH_DATE":"2021-02-16","PERIAPSIS":"546.132","NORAD_CAT_ID":"47628","MEAN_MOTION":"15.06405500","MEAN_MOTION_DOT":"0.00003757"},{"SEMIMAJOR_AXIS":"6925.322","TIME_SYSTEM":"UTC","MEAN_MOTION_DDOT":"0.0000000000000","EPHEMERIS_TYPE":"0","BSTAR":"0.00021543000000","PERIOD":"95.592","MEAN_ELEMENT_THEORY":"SGP4","RA_OF_ASC_NODE":"15.4019","LAUNCH_DATE":"2021-02-16","PERIAPSIS":"546.127","NORAD_CAT_ID":"47629","MEAN_MOTION":"15.06408785","MEAN_MOTION_DOT":"0.00002929","REF_FRAME":"TEME","CENTER_NAME":"EARTH","DECAY_DATE":null,"ECCENTRICITY":"0.00015300","COUNTRY_CODE":"US","MEAN_ANOMALY":"294.6981","ELEMENT_SET_NO":"999","OBJECT_TYPE":"PAYLOAD","ARG_OF_PERICENTER":"65.4167","OBJECT_ID":"2021-012K","APOAPSIS":"548.246","CLASSIFICATION_TYPE":"U","OBJECT_NAME":"STARLINK-1974","EPOCH":"2022-11-08T14:10:39.298368","SITE":"AFETR","RCS_SIZE":"LARGE","FILE":"3649076","TLE_LINE1":"1 47629U 21012K   22312.59073262  .00002929  00000-0  21543-3 0  9998","REV_AT_EPOCH":"9820","INCLINATION":"53.0562","GP_ID":"217201179","TLE_LINE2":"2 47629  53.0562  15.4019 0001530  65.4167 294.6981 15.06408785 98201"},{"MEAN_MOTION_DDOT":"0.0000000000000","SEMIMAJOR_AXIS":"6925.337","TIME_SYSTEM":"UTC","MEAN_ELEMENT_THEORY":"SGP4","PERIOD":"95.592","EPHEMERIS_TYPE":"0","BSTAR":"0.00000638050000","NORAD_CAT_ID":"47630","PERIAPSIS":"546.298","LAUNCH_DATE":"2021-02-16","RA_OF_ASC_NODE":"114.1810","MEAN_MOTION_DOT":"-0.00000186","MEAN_MOTION":"15.06403658","CENTER_NAME":"EARTH","REF_FRAME":"TEME","MEAN_ANOMALY":"271.4480","DECAY_DATE":null,"COUNTRY_CODE":"US","ECCENTRICITY":"0.00013060","ELEMENT_SET_NO":"999","OBJECT_TYPE":"PAYLOAD","APOAPSIS":"548.107","OBJECT_ID":"2021-012L","ARG_OF_PERICENTER":"88.6659","SITE":"AFETR","OBJECT_NAME":"STARLINK-1983","CLASSIFICATION_TYPE":"U","EPOCH":"2022-11-08T21:07:19.746624","RCS_SIZE":"LARGE","GP_ID":"217200438","TLE_LINE1":"1 47630U 21012L   22312.88008966 -.00000186  00000-0  63805-5 0  9994","INCLINATION":"53.0526","REV_AT_EPOCH":"9684","FILE":"3649076","TLE_LINE2":"2 47630  53.0526 114.1810 0001306  88.6659 271.4480 15.06403658 96842"},{"GP_ID":"217169403","FILE":"3648805","INCLINATION":"53.0553","TLE_LINE1":"1 47632U 21012N   22312.40872231  .00013435  00000-0  91845-3 0  9991","REV_AT_EPOCH":"9782","TLE_LINE2":"2 47632  53.0553  41.2056 0001515  69.6613 290.4539 15.06426837 97826","OBJECT_TYPE":"PAYLOAD","ELEMENT_SET_NO":"999","OBJECT_ID":"2021-012N","APOAPSIS":"548.180","ARG_OF_PERICENTER":"69.6613","CLASSIFICATION_TYPE":"U","OBJECT_NAME":"STARLINK-1992","EPOCH":"2022-11-08T09:48:33.607584","SITE":"AFETR","RCS_SIZE":"LARGE","CENTER_NAME":"EARTH","REF_FRAME":"TEME","ECCENTRICITY":"0.00015150","DECAY_DATE":null,"COUNTRY_CODE":"US","MEAN_ANOMALY":"290.4539","MEAN_MOTION_DDOT":"0.0000000000000","SEMIMAJOR_AXIS":"6925.266","TIME_SYSTEM":"UTC","MEAN_ELEMENT_THEORY":"SGP4","EPHEMERIS_TYPE":"0","BSTAR":"0.00091845000000","PERIOD":"95.590","PERIAPSIS":"546.082","NORAD_CAT_ID":"47632","RA_OF_ASC_NODE":"41.2056","LAUNCH_DATE":"2021-02-16","MEAN_MOTION":"15.06426837","MEAN_MOTION_DOT":"0.00013435"}];
